[{"OBJECT_NAME":"STARLINK-33779","OBJECT_ID":"2025-094S","EPOCH":"2026-03-09T21:49:31.022976","MEAN_MOTION":14.98353234,"ECCENTRICITY":0.00026753,"INCLINATION":70.0014,"RA_OF_ASC_NODE":234.0017,"ARG_OF_PERICENTER":271.8394,"MEAN_ANOMALY":88.2459,"EPHEMERIS_TYPE":0,"CLASSIFICATION_TYPE":"U","NORAD_CAT_ID":63880,"ELEMENT_SET_NO":999,"REV_AT_EPOCH":4723,"BSTAR":0.00050903307,"MEAN_MOTION_DOT":5.989e-5,"MEAN_MOTION_DDOT":0},{"OBJECT_NAME":"HINCUBE","OBJECT_ID":"2013-066AF","EPOCH":"2026-03-09T20:37:05.272320","MEAN_MOTION":15.06793635,"ECCENTRICITY":0.00336438,"INCLINATION":97.7872,"RA_OF_ASC_NODE":36.0584,"ARG_OF_PERICENTER":185.5277,"MEAN_ANOMALY":174.5583,"EPHEMERIS_TYPE":0,"CLASSIFICATION_TYPE":"U","NORAD_CAT_ID":39445,"ELEMENT_SET_NO":999,"REV_AT_EPOCH":66456,"BSTAR":0.00067193541,"MEAN_MOTION_DOT":0.00010075,"MEAN_MOTION_DDOT":0}]
